"{\n    \"CCSDS_OMM_VERS\": \"2.0\",\n    \"COMMENT\": \"GENERATED VIA SPACE-TRACK.ORG API\",\n    \"CREATION_DATE\": \"2025-08-31T17:37:22\",\n    \"ORIGINATOR\": \"18 SPCS\",\n    \"OBJECT_NAME\": \"GALILEO-FM3\",\n    \"OBJECT_ID\": \"2012-055A\",\n    \"CENTER_NAME\": \"EARTH\",\n    \"REF_FRAME\": \"TEME\",\n    \"TIME_SYSTEM\": \"UTC\",\n    \"MEAN_ELEMENT_THEORY\": \"SGP4\",\n    \"EPOCH\": \"2025-08-31T02:46:09.259680\",\n    \"MEAN_MOTION\": \"1.7047364854\",\n    \"ECCENTRICITY\": \"0.00030118483\",\n    \"INCLINATION\": \"55.624082\",\n    \"RA_OF_ASC_NODE\": \"109.51269\",\n    \"ARG_OF_PERICENTER\": \"288.28766\",\n    \"MEAN_ANOMALY\": \"71.766182\",\n    \"EPHEMERIS_TYPE\": \"0\",\n    \"CLASSIFICATION_TYPE\": \"U\",\n    \"NORAD_CAT_ID\": \"38857\",\n    \"ELEMENT_SET_NO\": \"999\",\n    \"REV_AT_EPOCH\": \"8006\",\n    \"BSTAR\": \"0\",\n    \"MEAN_MOTION_DOT\": \"-0.000000000802\",\n    \"MEAN_MOTION_DDOT\": \"0\",\n    \"TLE_LINE0\": \"0 GALILEO-FM3\",\n    \"TLE_LINE1\": \"1 38857U 12055A   25243.11538495  .00000000  00000-0  00000-0 0  9996\",\n    \"TLE_LINE2\": \"2 38857  55.6241 109.5127 0003012 288.2877  71.7662  1.70473649 80063\",\n    \"SEMIMAJOR_AXIS\": \"29600.361\",\n    \"PERIOD\": \"844.705\",\n    \"APOAPSIS\": \"23231.141\",\n    \"PERIAPSIS\": \"23213.311\",\n    \"OBJECT_TYPE\": \"PAYLOAD\",\n    \"DECAYED\": \"0\"\n}"